{
  "type": "FeatureCollection",
  "features": [
    {
      "type": "Feature",
      "properties": {
        "norad_id": 36744,
        "name": "COMS 1",
        "group": "weather",
        "lat": 4.022997601759854,
        "lon": 144.4196494439738,
        "alt_km": 35788.23329557626,
        "timestamp": "2025-12-22T18:58:53.062756+00:00",
        "meta_object_name": "COMS 1",
        "meta_object_id": "2010-032A",
        "meta_epoch": "2025-12-21T20:05:21.835392",
        "meta_mean_motion": 1.00271509,
        "meta_eccentricity": 7.401e-05,
        "meta_inclination": 4.3609,
        "meta_ra_of_asc_node": 77.8959,
        "meta_arg_of_pericenter": 208.2946,
        "meta_mean_anomaly": 233.9792,
        "meta_ephemeris_type": 0,
        "meta_classification_type": "U",
        "meta_norad_cat_id": 36744,
        "meta_element_set_no": 999,
        "meta_rev_at_epoch": 4931,
        "meta_bstar": 0,
        "meta_mean_motion_dot": -3.25e-06,
        "meta_mean_motion_ddot": 0,
        "tle_line1": "1 36744U 10032A   25355.83705828 -.00000325  00000+0  00000+0 0  9990",
        "tle_line2": "2 36744   4.3609  77.8959 0000740 208.2946 233.9792  1.00271509 49312"
      },
      "geometry": {
        "type": "Point",
        "coordinates": [
          144.4196494439738,
          4.022997601759854
        ]
      }
    },
    {
      "type": "Feature",
      "properties": {
        "norad_id": 37214,
        "name": "FENGYUN 3B",
        "group": "weather",
        "lat": 76.23529021912958,
        "lon": -3.4161409612665157,
        "alt_km": 841.1854647358159,
        "timestamp": "2025-12-22T18:58:53.062768+00:00",
        "meta_object_name": "FENGYUN 3B",
        "meta_object_id": "2010-059A",
        "meta_epoch": "2025-12-22T07:02:19.055904",
        "meta_mean_motion": 14.14791659,
        "meta_eccentricity": 0.00216044,
        "meta_inclination": 98.9894,
        "meta_ra_of_asc_node": 36.3371,
        "meta_arg_of_pericenter": 330.5824,
        "meta_mean_anomaly": 95.6698,
        "meta_ephemeris_type": 0,
        "meta_classification_type": "U",
        "meta_norad_cat_id": 37214,
        "meta_element_set_no": 999,
        "meta_rev_at_epoch": 78241,
        "meta_bstar": -1.1925894e-05,
        "meta_mean_motion_dot": -6.9e-07,
        "meta_mean_motion_ddot": 0,
        "tle_line1": "1 37214U 10059A   25356.29327611 -.00000069  00000+0 -11926-4 0  9993",
        "tle_line2": "2 37214  98.9894  36.3371 0021604 330.5824  95.6698 14.14791659782419"
      },
      "geometry": {
        "type": "Point",
        "coordinates": [
          -3.4161409612665157,
          76.23529021912958
        ]
      }
    },
    {
      "type": "Feature",
      "properties": {
        "norad_id": 37849,
        "name": "SUOMI NPP",
        "group": "weather",
        "lat": 81.19112303789112,
        "lon": -160.28973063387676,
        "alt_km": 817.772955217617,
        "timestamp": "2025-12-22T18:58:53.062780+00:00",
        "meta_object_name": "SUOMI NPP",
        "meta_object_id": "2011-061A",
        "meta_epoch": "2025-12-21T22:15:21.719808",
        "meta_mean_motion": 14.19516721,
        "meta_eccentricity": 0.0002479,
        "meta_inclination": 98.7786,
        "meta_ra_of_asc_node": 293.1866,
        "meta_arg_of_pericenter": 104.3593,
        "meta_mean_anomaly": 255.7858,
        "meta_ephemeris_type": 0,
        "meta_classification_type": "U",
        "meta_norad_cat_id": 37849,
        "meta_element_set_no": 999,
        "meta_rev_at_epoch": 73329,
        "meta_bstar": 6.3109e-05,
        "meta_mean_motion_dot": 8.9e-07,
        "meta_mean_motion_ddot": 0,
        "tle_line1": "1 37849U 11061A   25355.92733472  .00000089  00000+0  63109-4 0  9996",
        "tle_line2": "2 37849  98.7786 293.1866 0002479 104.3593 255.7858 14.19516721733291"
      },
      "geometry": {
        "type": "Point",
        "coordinates": [
          -160.28973063387676,
          81.19112303789112
        ]
      }
    },
    {
      "type": "Feature",
      "properties": {
        "norad_id": 38552,
        "name": "METEOSAT-10 (MSG-3)",
        "group": "weather",
        "lat": -3.0067358332417826,
        "lon": 16.725922414283897,
        "alt_km": 35783.04697362752,
        "timestamp": "2025-12-22T18:58:53.062793+00:00",
        "meta_object_name": "METEOSAT-10 (MSG-3)",
        "meta_object_id": "2012-035B",
        "meta_epoch": "2025-12-22T01:10:55.257888",
        "meta_mean_motion": 1.00276818,
        "meta_eccentricity": 7.128e-05,
        "meta_inclination": 4.2491,
        "meta_ra_of_asc_node": 61.6977,
        "meta_arg_of_pericenter": 266.7505,
        "meta_mean_anomaly": 140.4613,
        "meta_ephemeris_type": 0,
        "meta_classification_type": "U",
        "meta_norad_cat_id": 38552,
        "meta_element_set_no": 999,
        "meta_rev_at_epoch": 4908,
        "meta_bstar": 0,
        "meta_mean_motion_dot": 1.6e-07,
        "meta_mean_motion_ddot": 0,
        "tle_line1": "1 38552U 12035B   25356.04925067  .00000016  00000+0  00000+0 0  9993",
        "tle_line2": "2 38552   4.2491  61.6977 0000712 266.7505 140.4613  1.00276818 49085"
      },
      "geometry": {
        "type": "Point",
        "coordinates": [
          16.725922414283897,
          -3.0067358332417826
        ]
      }
    },
    {
      "type": "Feature",
      "properties": {
        "norad_id": 38771,
        "name": "METOP-B",
        "group": "weather",
        "lat": 11.00288903332127,
        "lon": 44.87675474870374,
        "alt_km": 822.7935547945299,
        "timestamp": "2025-12-22T18:58:53.062804+00:00",
        "meta_object_name": "METOP-B",
        "meta_object_id": "2012-049A",
        "meta_epoch": "2025-12-22T05:24:49.828608",
        "meta_mean_motion": 14.21411887,
        "meta_eccentricity": 0.00031997,
        "meta_inclination": 98.6785,
        "meta_ra_of_asc_node": 46.0229,
        "meta_arg_of_pericenter": 124.1254,
        "meta_mean_anomaly": 236.0228,
        "meta_ephemeris_type": 0,
        "meta_classification_type": "U",
        "meta_norad_cat_id": 38771,
        "meta_element_set_no": 999,
        "meta_rev_at_epoch": 68812,
        "meta_bstar": 8.3224034e-05,
        "meta_mean_motion_dot": 1.38e-06,
        "meta_mean_motion_ddot": 0,
        "tle_line1": "1 38771U 12049A   25356.22557672  .00000138  00000+0  83224-4 0  9993",
        "tle_line2": "2 38771  98.6785  46.0229 0003199 124.1254 236.0228 14.21411887688120"
      },
      "geometry": {
        "type": "Point",
        "coordinates": [
          44.87675474870374,
          11.00288903332127
        ]
      }
    },
    {
      "type": "Feature",
      "properties": {
        "norad_id": 39216,
        "name": "INSAT-3D",
        "group": "weather",
        "lat": 1.3012535760097812,
        "lon": 145.789438494071,
        "alt_km": 35785.06372463502,
        "timestamp": "2025-12-22T18:58:53.062816+00:00",
        "meta_object_name": "INSAT-3D",
        "meta_object_id": "2013-038B",
        "meta_epoch": "2025-12-21T22:22:26.393088",
        "meta_mean_motion": 1.00276295,
        "meta_eccentricity": 0.00018209,
        "meta_inclination": 1.4671,
        "meta_ra_of_asc_node": 84.8937,
        "meta_arg_of_pericenter": 152.8025,
        "meta_mean_anomaly": 318.1565,
        "meta_ephemeris_type": 0,
        "meta_classification_type": "U",
        "meta_norad_cat_id": 39216,
        "meta_element_set_no": 999,
        "meta_rev_at_epoch": 4530,
        "meta_bstar": 0,
        "meta_mean_motion_dot": -3.17e-06,
        "meta_mean_motion_ddot": 0,
        "tle_line1": "1 39216U 13038B   25355.93224992 -.00000317  00000+0  00000+0 0  9996",
        "tle_line2": "2 39216   1.4671  84.8937 0001820 152.8025 318.1565  1.00276295 45308"
      },
      "geometry": {
        "type": "Point",
        "coordinates": [
          145.789438494071,
          1.3012535760097812
        ]
      }
    },
    {
      "type": "Feature",
      "properties": {
        "norad_id": 39260,
        "name": "FENGYUN 3C",
        "group": "weather",
        "lat": 50.689960572608065,
        "lon": -36.51512468612562,
        "alt_km": 839.8012999235998,
        "timestamp": "2025-12-22T18:58:53.062828+00:00",
        "meta_object_name": "FENGYUN 3C",
        "meta_object_id": "2013-052A",
        "meta_epoch": "2025-12-22T05:10:07.294944",
        "meta_mean_motion": 14.15699028,
        "meta_eccentricity": 0.00148046,
        "meta_inclination": 98.4774,
        "meta_ra_of_asc_node": 333.4325,
        "meta_arg_of_pericenter": 168.5405,
        "meta_mean_anomaly": 191.611,
        "meta_ephemeris_type": 0,
        "meta_classification_type": "U",
        "meta_norad_cat_id": 39260,
        "meta_element_set_no": 999,
        "meta_rev_at_epoch": 63352,
        "meta_bstar": 6.5206816e-05,
        "meta_mean_motion_dot": 8.7e-07,
        "meta_mean_motion_ddot": 0,
        "tle_line1": "1 39260U 13052A   25356.21536221  .00000087  00000+0  65207-4 0  9992",
        "tle_line2": "2 39260  98.4774 333.4325 0014804 168.5405 191.6110 14.15699028633523"
      },
      "geometry": {
        "type": "Point",
        "coordinates": [
          -36.51512468612562,
          50.689960572608065
        ]
      }
    }
  ]
}